[{"OBJECT_NAME":"QIANFAN-86","OBJECT_ID":"2025-046P","EPOCH":"2026-03-04T14:50:43.873440","MEAN_MOTION":13.51001111,"ECCENTRICITY":0.00092648,"INCLINATION":88.9764,"RA_OF_ASC_NODE":311.329,"ARG_OF_PERICENTER":255.7305,"MEAN_ANOMALY":104.2817,"EPHEMERIS_TYPE":0,"CLASSIFICATION_TYPE":"U","NORAD_CAT_ID":63172,"ELEMENT_SET_NO":999,"REV_AT_EPOCH":5860,"BSTAR":0.00025949282,"MEAN_MOTION_DOT":1.8e-6,"MEAN_MOTION_DDOT":0},{"OBJECT_NAME":"QIANFAN-87","OBJECT_ID":"2025-046Q","EPOCH":"2026-03-04T14:09:22.897440","MEAN_MOTION":13.5100959,"ECCENTRICITY":0.00099455,"INCLINATION":88.976,"RA_OF_ASC_NODE":311.4404,"ARG_OF_PERICENTER":250.0828,"MEAN_ANOMALY":109.9252,"EPHEMERIS_TYPE":0,"CLASSIFICATION_TYPE":"U","NORAD_CAT_ID":63173,"ELEMENT_SET_NO":999,"REV_AT_EPOCH":5853,"BSTAR":0.00030709731,"MEAN_MOTION_DOT":2.1e-6,"MEAN_MOTION_DDOT":0},{"OBJECT_NAME":"QIANFAN-88","OBJECT_ID":"2025-046R","EPOCH":"2026-03-04T14:32:52.505664","MEAN_MOTION":13.50997904,"ECCENTRICITY":0.00103529,"INCLINATION":88.9763,"RA_OF_ASC_NODE":311.3955,"ARG_OF_PERICENTER":259.7108,"MEAN_ANOMALY":100.2876,"EPHEMERIS_TYPE":0,"CLASSIFICATION_TYPE":"U","NORAD_CAT_ID":63174,"ELEMENT_SET_NO":999,"REV_AT_EPOCH":5856,"BSTAR":0.00028927435,"MEAN_MOTION_DOT":1.99e-6,"MEAN_MOTION_DDOT":0},{"OBJECT_NAME":"QIANFAN-89","OBJECT_ID":"2025-046S","EPOCH":"2026-03-04T15:26:26.293632","MEAN_MOTION":13.5100845,"ECCENTRICITY":0.00148264,"INCLINATION":88.9763,"RA_OF_ASC_NODE":311.5807,"ARG_OF_PERICENTER":248.6011,"MEAN_ANOMALY":111.3559,"EPHEMERIS_TYPE":0,"CLASSIFICATION_TYPE":"U","NORAD_CAT_ID":63175,"ELEMENT_SET_NO":999,"REV_AT_EPOCH":5846,"BSTAR":0.00030142585,"MEAN_MOTION_DOT":2.07e-6,"MEAN_MOTION_DDOT":0},{"OBJECT_NAME":"QIANFAN-90","OBJECT_ID":"2025-046T","EPOCH":"2026-03-04T14:21:18.632448","MEAN_MOTION":13.51008324,"ECCENTRICITY":0.00117783,"INCLINATION":88.9763,"RA_OF_ASC_NODE":311.5578,"ARG_OF_PERICENTER":246.7728,"MEAN_ANOMALY":113.2184,"EPHEMERIS_TYPE":0,"CLASSIFICATION_TYPE":"U","NORAD_CAT_ID":63176,"ELEMENT_SET_NO":999,"REV_AT_EPOCH":5847,"BSTAR":0.0003283492,"MEAN_MOTION_DOT":2.24e-6,"MEAN_MOTION_DDOT":0},{"OBJECT_NAME":"QIANFAN-91","OBJECT_ID":"2025-233A","EPOCH":"2026-03-04T13:21:30.752352","MEAN_MOTION":13.51004489,"ECCENTRICITY":0.0001916,"INCLINATION":88.9928,"RA_OF_ASC_NODE":53.7692,"ARG_OF_PERICENTER":92.7386,"MEAN_ANOMALY":267.3984,"EPHEMERIS_TYPE":0,"CLASSIFICATION_TYPE":"U","NORAD_CAT_ID":66033,"ELEMENT_SET_NO":999,"REV_AT_EPOCH":1905,"BSTAR":4.8758436e-5,"MEAN_MOTION_DOT":4.3e-7,"MEAN_MOTION_DDOT":0},{"OBJECT_NAME":"QIANFAN-92","OBJECT_ID":"2025-233B","EPOCH":"2026-03-04T13:33:16.442496","MEAN_MOTION":13.51005913,"ECCENTRICITY":0.00019327,"INCLINATION":88.9912,"RA_OF_ASC_NODE":53.7572,"ARG_OF_PERICENTER":85.9609,"MEAN_ANOMALY":274.1763,"EPHEMERIS_TYPE":0,"CLASSIFICATION_TYPE":"U","NORAD_CAT_ID":66034,"ELEMENT_SET_NO":999,"REV_AT_EPOCH":1905,"BSTAR":2.4151101e-5,"MEAN_MOTION_DOT":2.8e-7,"MEAN_MOTION_DDOT":0},{"OBJECT_NAME":"QIANFAN-93","OBJECT_ID":"2025-233C","EPOCH":"2026-03-04T13:45:07.707168","MEAN_MOTION":13.51004834,"ECCENTRICITY":0.00019036,"INCLINATION":88.9939,"RA_OF_ASC_NODE":53.7799,"ARG_OF_PERICENTER":90.7613,"MEAN_ANOMALY":269.3756,"EPHEMERIS_TYPE":0,"CLASSIFICATION_TYPE":"U","NORAD_CAT_ID":66035,"ELEMENT_SET_NO":999,"REV_AT_EPOCH":1905,"BSTAR":1.3840815e-5,"MEAN_MOTION_DOT":2.1e-7,"MEAN_MOTION_DDOT":0},{"OBJECT_NAME":"QIANFAN-94","OBJECT_ID":"2025-233D","EPOCH":"2026-03-04T13:27:06.629760","MEAN_MOTION":13.50991878,"ECCENTRICITY":0.00020364,"INCLINATION":88.9935,"RA_OF_ASC_NODE":53.688,"ARG_OF_PERICENTER":88.3285,"MEAN_ANOMALY":271.81,"EPHEMERIS_TYPE":0,"CLASSIFICATION_TYPE":"U","NORAD_CAT_ID":66036,"ELEMENT_SET_NO":999,"REV_AT_EPOCH":1910,"BSTAR":3.5278018e-5,"MEAN_MOTION_DOT":3.5e-7,"MEAN_MOTION_DDOT":0},{"OBJECT_NAME":"QIANFAN-95","OBJECT_ID":"2025-233E","EPOCH":"2026-03-04T13:39:01.445472","MEAN_MOTION":13.51015315,"ECCENTRICITY":0.00020442,"INCLINATION":88.9933,"RA_OF_ASC_NODE":53.2334,"ARG_OF_PERICENTER":93.6229,"MEAN_ANOMALY":266.5155,"EPHEMERIS_TYPE":0,"CLASSIFICATION_TYPE":"U","NORAD_CAT_ID":66037,"ELEMENT_SET_NO":999,"REV_AT_EPOCH":1935,"BSTAR":7.3929029e-5,"MEAN_MOTION_DOT":6.0e-7,"MEAN_MOTION_DDOT":0},{"OBJECT_NAME":"QIANFAN-96","OBJECT_ID":"2025-233F","EPOCH":"2026-03-04T14:14:49.113600","MEAN_MOTION":13.5100462,"ECCENTRICITY":0.00019243,"INCLINATION":88.993,"RA_OF_ASC_NODE":53.7769,"ARG_OF_PERICENTER":94.5819,"MEAN_ANOMALY":265.5552,"EPHEMERIS_TYPE":0,"CLASSIFICATION_TYPE":"U","NORAD_CAT_ID":66038,"ELEMENT_SET_NO":999,"REV_AT_EPOCH":1905,"BSTAR":3.1460323e-5,"MEAN_MOTION_DOT":3.2e-7,"MEAN_MOTION_DDOT":0},{"OBJECT_NAME":"QIANFAN-97","OBJECT_ID":"2025-233G","EPOCH":"2026-03-04T13:51:05.855904","MEAN_MOTION":13.51004042,"ECCENTRICITY":0.00019354,"INCLINATION":88.9934,"RA_OF_ASC_NODE":53.7592,"ARG_OF_PERICENTER":92.1419,"MEAN_ANOMALY":267.9953,"EPHEMERIS_TYPE":0,"CLASSIFICATION_TYPE":"U","NORAD_CAT_ID":66039,"ELEMENT_SET_NO":999,"REV_AT_EPOCH":1906,"BSTAR":1.6776076e-5,"MEAN_MOTION_DOT":2.3e-7,"MEAN_MOTION_DDOT":0},{"OBJECT_NAME":"QIANFAN-98","OBJECT_ID":"2025-233H","EPOCH":"2026-03-04T14:02:52.370304","MEAN_MOTION":13.51004464,"ECCENTRICITY":0.00024571,"INCLINATION":88.9923,"RA_OF_ASC_NODE":53.5007,"ARG_OF_PERICENTER":85.7565,"MEAN_ANOMALY":274.3867,"EPHEMERIS_TYPE":0,"CLASSIFICATION_TYPE":"U","NORAD_CAT_ID":66040,"ELEMENT_SET_NO":999,"REV_AT_EPOCH":1920,"BSTAR":2.7507151e-5,"MEAN_MOTION_DOT":3.0e-7,"MEAN_MOTION_DDOT":0},{"OBJECT_NAME":"QIANFAN-99","OBJECT_ID":"2025-233J","EPOCH":"2026-03-04T14:08:51.974880","MEAN_MOTION":13.51004757,"ECCENTRICITY":0.00023216,"INCLINATION":88.9934,"RA_OF_ASC_NODE":53.7613,"ARG_OF_PERICENTER":89.4013,"MEAN_ANOMALY":270.7404,"EPHEMERIS_TYPE":0,"CLASSIFICATION_TYPE":"U","NORAD_CAT_ID":66041,"ELEMENT_SET_NO":999,"REV_AT_EPOCH":1906,"BSTAR":3.875062e-5,"MEAN_MOTION_DOT":3.7e-7,"MEAN_MOTION_DDOT":0},{"OBJECT_NAME":"QIANFAN-100","OBJECT_ID":"2025-233K","EPOCH":"2026-03-04T13:56:58.566624","MEAN_MOTION":13.51005629,"ECCENTRICITY":0.00019078,"INCLINATION":88.9945,"RA_OF_ASC_NODE":53.6774,"ARG_OF_PERICENTER":91.373,"MEAN_ANOMALY":268.764,"EPHEMERIS_TYPE":0,"CLASSIFICATION_TYPE":"U","NORAD_CAT_ID":66042,"ELEMENT_SET_NO":999,"REV_AT_EPOCH":1911,"BSTAR":7.2738812e-5,"MEAN_MOTION_DOT":5.9e-7,"MEAN_MOTION_DDOT":0},{"OBJECT_NAME":"QIANFAN-101","OBJECT_ID":"2025-233L","EPOCH":"2026-03-04T14:03:34.529184","MEAN_MOTION":14.26733104,"ECCENTRICITY":0.0016793,"INCLINATION":88.9935,"RA_OF_ASC_NODE":52.5733,"ARG_OF_PERICENTER":121.9869,"MEAN_ANOMALY":238.296,"EPHEMERIS_TYPE":0,"CLASSIFICATION_TYPE":"U","NORAD_CAT_ID":66043,"ELEMENT_SET_NO":999,"REV_AT_EPOCH":1971,"BSTAR":0.00028390096,"MEAN_MOTION_DOT":7.02e-6,"MEAN_MOTION_DDOT":0},{"OBJECT_NAME":"QIANFAN-102","OBJECT_ID":"2025-233M","EPOCH":"2026-03-04T14:26:23.972640","MEAN_MOTION":13.50992395,"ECCENTRICITY":0.00020859,"INCLINATION":88.9932,"RA_OF_ASC_NODE":53.6721,"ARG_OF_PERICENTER":88.8445,"MEAN_ANOMALY":271.2945,"EPHEMERIS_TYPE":0,"CLASSIFICATION_TYPE":"U","NORAD_CAT_ID":66044,"ELEMENT_SET_NO":999,"REV_AT_EPOCH":1911,"BSTAR":2.6996253e-5,"MEAN_MOTION_DOT":2.9e-7,"MEAN_MOTION_DDOT":0}]
