QIANFAN-86              
1 63172U 25046P   26063.61856335  .00000180  00000+0  25949-3 0  9990
2 63172  88.9764 311.3290 0009264 255.7305 104.2817 13.51001111 58606
QIANFAN-87              
1 63173U 25046Q   26063.58984835  .00000210  00000+0  30710-3 0  9990
2 63173  88.9760 311.4404 0009945 250.0828 109.9252 13.51009590 58531
QIANFAN-88              
1 63174U 25046R   26063.60616326  .00000199  00000+0  28927-3 0  9994
2 63174  88.9763 311.3955 0010352 259.7108 100.2876 13.50997904 58569
QIANFAN-89              
1 63175U 25046S   26063.64335988  .00000207  00000+0  30143-3 0  9994
2 63175  88.9763 311.5807 0014826 248.6011 111.3559 13.51008450 58468
QIANFAN-90              
1 63176U 25046T   26063.59813232  .00000224  00000+0  32835-3 0  9991
2 63176  88.9763 311.5578 0011778 246.7728 113.2184 13.51008324 58477
QIANFAN-91              
1 66033U 25233A   26063.55660593  .00000043  00000+0  48758-4 0  9991
2 66033  88.9928  53.7692 0001916  92.7386 267.3984 13.51004489 19057
QIANFAN-92              
1 66034U 25233B   26063.56477364  .00000028  00000+0  24151-4 0  9999
2 66034  88.9912  53.7572 0001932  85.9609 274.1763 13.51005913 19052
QIANFAN-93              
1 66035U 25233C   26063.57300587  .00000021  00000+0  13841-4 0  9990
2 66035  88.9939  53.7799 0001903  90.7613 269.3756 13.51004834 19059
QIANFAN-94              
1 66036U 25233D   26063.56049340  .00000035  00000+0  35278-4 0  9990
2 66036  88.9935  53.6880 0002036  88.3285 271.8100 13.50991878 19101
QIANFAN-95              
1 66037U 25233E   26063.56876673  .00000060  00000+0  73929-4 0  9991
2 66037  88.9933  53.2334 0002044  93.6229 266.5155 13.51015315 19358
QIANFAN-96              
1 66038U 25233F   26063.59362400  .00000032  00000+0  31460-4 0  9996
2 66038  88.9930  53.7769 0001924  94.5819 265.5552 13.51004620 19058
QIANFAN-97              
1 66039U 25233G   26063.57715111  .00000023  00000+0  16776-4 0  9999
2 66039  88.9934  53.7592 0001935  92.1419 267.9953 13.51004042 19069
QIANFAN-98              
1 66040U 25233H   26063.58532836  .00000030  00000+0  27507-4 0  9995
2 66040  88.9923  53.5007 0002457  85.7565 274.3867 13.51004464 19208
QIANFAN-99              
1 66041U 25233J   26063.58949045  .00000037  00000+0  38751-4 0  9990
2 66041  88.9934  53.7613 0002321  89.4013 270.7404 13.51004757 19061
QIANFAN-100             
1 66042U 25233K   26063.58123341  .00000059  00000+0  72739-4 0  9992
2 66042  88.9945  53.6774 0001907  91.3730 268.7640 13.51005629 19112
QIANFAN-101             
1 66043U 25233L   26063.58581631  .00000702  00000+0  28390-3 0  9991
2 66043  88.9935  52.5733 0016793 121.9869 238.2960 14.26733104 19719
QIANFAN-102             
1 66044U 25233M   26063.60166635  .00000029  00000+0  26996-4 0  9991
2 66044  88.9932  53.6721 0002085  88.8445 271.2945 13.50992395 19115
